[{"OBJECT_NAME":"STARLINK-36638","OBJECT_ID":"2026-018F","EPOCH":"2026-03-09T22:00:01.999584","MEAN_MOTION":15.62498601,"ECCENTRICITY":0.00018934,"INCLINATION":97.284,"RA_OF_ASC_NODE":134.79,"ARG_OF_PERICENTER":66.192,"MEAN_ANOMALY":51.2719,"EPHEMERIS_TYPE":0,"CLASSIFICATION_TYPE":"U","NORAD_CAT_ID":67594,"ELEMENT_SET_NO":999,"REV_AT_EPOCH":604,"BSTAR":-0.02483464,"MEAN_MOTION_DOT":-0.01946545,"MEAN_MOTION_DDOT":0},{"OBJECT_NAME":"FLOCK 4G-16","OBJECT_ID":"2025-009AF","EPOCH":"2026-03-09T16:24:08.859168","MEAN_MOTION":15.48160181,"ECCENTRICITY":0.00015351,"INCLINATION":97.3918,"RA_OF_ASC_NODE":155.5159,"ARG_OF_PERICENTER":253.888,"MEAN_ANOMALY":106.2201,"EPHEMERIS_TYPE":0,"CLASSIFICATION_TYPE":"U","NORAD_CAT_ID":62638,"ELEMENT_SET_NO":999,"REV_AT_EPOCH":6403,"BSTAR":0.0012441051,"MEAN_MOTION_DOT":0.00065741,"MEAN_MOTION_DDOT":0}]
